{"type": "FeatureCollection", "features": [ {"type": "Feature", "properties": {"norad_id": 31630, "name": "FENGYUN 1C DEB", "group": "fengyun-1c-debris", "lat": -62.69812022483434, "lon": -179.36195265172034, "alt_km": 452.25946961421505, "timestamp": "2025-12-22T14:45:57.686097+00:00", "meta": {"OBJECT_NAME": "FENGYUN 1C DEB", "OBJECT_ID": "1999-025CAL", "EPOCH": "2025-12-22T05:28:34.626720", "MEAN_MOTION": 15.06551514, "ECCENTRICITY": 0.01641353, "INCLINATION": 98.0893, "RA_OF_ASC_NODE": 164.2373, "ARG_OF_PERICENTER": 324.5448, "MEAN_ANOMALY": 34.4953, "EPHEMERIS_TYPE": 0, "CLASSIFICATION_TYPE": "U", "NORAD_CAT_ID": 31630, "ELEMENT_SET_NO": 999, "REV_AT_EPOCH": 98733, "BSTAR": 0.0009387373, "MEAN_MOTION_DOT": 0.00018857, "MEAN_MOTION_DDOT": 0}, "tle": {"line1": "1 31630U 99025CAL 25356.22817855  .00018857  00000+0  93874-3 0  9999", "line2": "2 31630  98.0893 164.2373 0164135 324.5448  34.4953 15.06551514987339"}}, "geometry": {"type": "Point", "coordinates": [-179.36195265172034, -62.69812022483434]}}, {"type": "Feature", "properties": {"norad_id": 31631, "name": "FENGYUN 1C DEB", "group": "fengyun-1c-debris", "lat": 22.15837449964413, "lon": 92.73195434880367, "alt_km": 687.2354839111704, "timestamp": "2025-12-22T14:45:57.686109+00:00", "meta": {"OBJECT_NAME": "FENGYUN 1C DEB", "OBJECT_ID": "1999-025CAM", "EPOCH": "2025-12-21T23:22:10.430112", "MEAN_MOTION": 14.72256509, "ECCENTRICITY": 0.0058858, "INCLINATION": 99.3447, "RA_OF_ASC_NODE": 268.1503, "ARG_OF_PERICENTER": 304.5892, "MEAN_ANOMALY": 54.9766, "EPHEMERIS_TYPE": 0, "CLASSIFICATION_TYPE": "U", "NORAD_CAT_ID": 31631, "ELEMENT_SET_NO": 999, "REV_AT_EPOCH": 64108, "BSTAR": 0.0085242, "MEAN_MOTION_DOT": 0.00055675, "MEAN_MOTION_DDOT": 0}, "tle": {"line1": "1 31631U 99025CAM 25355.97373183  .00055675  00000+0  85242-2 0  9990", "line2": "2 31631  99.3447 268.1503 0058858 304.5892  54.9766 14.72256509641089"}}, "geometry": {"type": "Point", "coordinates": [92.73195434880367, 22.15837449964413]}}, {"type": "Feature", "properties": {"norad_id": 31634, "name": "FENGYUN 1C DEB", "group": "fengyun-1c-debris", "lat": 44.27231893645287, "lon": 33.99185368696798, "alt_km": 903.2329206972563, "timestamp": "2025-12-22T14:45:57.686121+00:00", "meta": {"OBJECT_NAME": "FENGYUN 1C DEB", "OBJECT_ID": "1999-025CAQ", "EPOCH": "2025-12-17T20:54:46.786176", "MEAN_MOTION": 13.94677319, "ECCENTRICITY": 0.00920361, "INCLINATION": 99.3665, "RA_OF_ASC_NODE": 38.4397, "ARG_OF_PERICENTER": 144.0195, "MEAN_ANOMALY": 216.7209, "EPHEMERIS_TYPE": 0, "CLASSIFICATION_TYPE": "U", "NORAD_CAT_ID": 31634, "ELEMENT_SET_NO": 999, "REV_AT_EPOCH": 56595, "BSTAR": 0.00024519173, "MEAN_MOTION_DOT": 2.94e-06, "MEAN_MOTION_DDOT": 0}, "tle": {"line1": "1 31634U 99025CAQ 25351.87137484  .00000294  00000+0  24519-3 0  9998", "line2": "2 31634  99.3665  38.4397 0092036 144.0195 216.7209 13.94677319565952"}}, "geometry": {"type": "Point", "coordinates": [33.99185368696798, 44.27231893645287]}}, {"type": "Feature", "properties": {"norad_id": 31639, "name": "FENGYUN 1C DEB", "group": "fengyun-1c-debris", "lat": -57.69810565074635, "lon": -44.02098080884674, "alt_km": 1071.0892771527206, "timestamp": "2025-12-22T14:45:57.686131+00:00", "meta": {"OBJECT_NAME": "FENGYUN 1C DEB", "OBJECT_ID": "1999-025CAV", "EPOCH": "2025-12-17T14:33:04.588704", "MEAN_MOTION": 13.85164921, "ECCENTRICITY": 0.01618732, "INCLINATION": 98.7438, "RA_OF_ASC_NODE": 297.218, "ARG_OF_PERICENTER": 132.0188, "MEAN_ANOMALY": 45.3682, "EPHEMERIS_TYPE": 0, "CLASSIFICATION_TYPE": "U", "NORAD_CAT_ID": 31639, "ELEMENT_SET_NO": 999, "REV_AT_EPOCH": 93755, "BSTAR": 9.8807532e-05, "MEAN_MOTION_DOT": 8.5e-07, "MEAN_MOTION_DDOT": 0}, "tle": {"line1": "1 31639U 99025CAV 25351.60630311  .00000085  00000+0  98808-4 0  9992", "line2": "2 31639  98.7438 297.2180 0161873 132.0188  45.3682 13.85164921937558"}}, "geometry": {"type": "Point", "coordinates": [-44.02098080884674, -57.69810565074635]}}, {"type": "Feature", "properties": {"norad_id": 31642, "name": "FENGYUN 1C DEB", "group": "fengyun-1c-debris", "lat": 35.56683095184285, "lon": 72.50225801898898, "alt_km": 861.8033977816403, "timestamp": "2025-12-22T14:45:57.686141+00:00", "meta": {"OBJECT_NAME": "FENGYUN 1C DEB", "OBJECT_ID": "1999-025CAY", "EPOCH": "2025-12-21T23:31:02.703360", "MEAN_MOTION": 14.33421093, "ECCENTRICITY": 0.0119447, "INCLINATION": 98.5036, "RA_OF_ASC_NODE": 78.0193, "ARG_OF_PERICENTER": 228.8987, "MEAN_ANOMALY": 130.1835, "EPHEMERIS_TYPE": 0, "CLASSIFICATION_TYPE": "U", "NORAD_CAT_ID": 31642, "ELEMENT_SET_NO": 999, "REV_AT_EPOCH": 97151, "BSTAR": 0.0003454307, "MEAN_MOTION_DOT": 9.86e-06, "MEAN_MOTION_DDOT": 0}, "tle": {"line1": "1 31642U 99025CAY 25355.97989240  .00000986  00000+0  34543-3 0  9993", "line2": "2 31642  98.5036  78.0193 0119447 228.8987 130.1835 14.33421093971511"}}, "geometry": {"type": "Point", "coordinates": [72.50225801898898, 35.56683095184285]}}, {"type": "Feature", "properties": {"norad_id": 31644, "name": "FENGYUN 1C DEB", "group": "fengyun-1c-debris", "lat": 56.684723650475405, "lon": 80.47321362321011, "alt_km": 567.4251090209054, "timestamp": "2025-12-22T14:45:57.686152+00:00", "meta": {"OBJECT_NAME": "FENGYUN 1C DEB", "OBJECT_ID": "1999-025CBA", "EPOCH": "2025-12-21T11:11:49.782624", "MEAN_MOTION": 14.67981563, "ECCENTRICITY": 0.01545239, "INCLINATION": 98.671, "RA_OF_ASC_NODE": 245.8309, "ARG_OF_PERICENTER": 155.9147, "MEAN_ANOMALY": 20.174, "EPHEMERIS_TYPE": 0, "CLASSIFICATION_TYPE": "U", "NORAD_CAT_ID": 31644, "ELEMENT_SET_NO": 999, "REV_AT_EPOCH": 71172, "BSTAR": 0.00053628106, "MEAN_MOTION_DOT": 3.619e-05, "MEAN_MOTION_DDOT": 0}, "tle": {"line1": "1 31644U 99025CBA 25355.46654841  .00003619  00000+0  53628-3 0  9996", "line2": "2 31644  98.6710 245.8309 0154523 155.9147  20.1740 14.67981563711726"}}, "geometry": {"type": "Point", "coordinates": [80.47321362321011, 56.684723650475405]}}, {"type": "Feature", "properties": {"norad_id": 31646, "name": "FENGYUN 1C DEB", "group": "fengyun-1c-debris", "lat": -6.924154134716263, "lon": -161.71074892498314, "alt_km": 824.7718133375001, "timestamp": "2025-12-22T14:45:57.686164+00:00", "meta": {"OBJECT_NAME": "FENGYUN 1C DEB", "OBJECT_ID": "1999-025CBC", "EPOCH": "2025-12-21T19:12:21.278592", "MEAN_MOTION": 14.1415009, "ECCENTRICITY": 0.00334947, "INCLINATION": 98.6891, "RA_OF_ASC_NODE": 18.5609, "ARG_OF_PERICENTER": 188.0881, "MEAN_ANOMALY": 171.9757, "EPHEMERIS_TYPE": 0, "CLASSIFICATION_TYPE": "U", "NORAD_CAT_ID": 31646, "ELEMENT_SET_NO": 999, "REV_AT_EPOCH": 63319, "BSTAR": 0.00038755051, "MEAN_MOTION_DOT": 6.99e-06, "MEAN_MOTION_DDOT": 0}, "tle": {"line1": "1 31646U 99025CBC 25355.80024628  .00000699  00000+0  38755-3 0  9999", "line2": "2 31646  98.6891  18.5609 0033494 188.0881 171.9757 14.14150090633193"}}, "geometry": {"type": "Point", "coordinates": [-161.71074892498314, -6.924154134716263]}}, {"type": "Feature", "properties": {"norad_id": 31655, "name": "FENGYUN 1C DEB", "group": "fengyun-1c-debris", "lat": 12.694650098175257, "lon": -60.038164930420585, "alt_km": 1050.4450661051715, "timestamp": "2025-12-22T14:45:57.686174+00:00", "meta": {"OBJECT_NAME": "FENGYUN 1C DEB", "OBJECT_ID": "1999-025CBM", "EPOCH": "2025-12-21T19:28:59.991744", "MEAN_MOTION": 13.63924147, "ECCENTRICITY": 0.02903525, "INCLINATION": 99.2852, "RA_OF_ASC_NODE": 301.3055, "ARG_OF_PERICENTER": 114.1713, "MEAN_ANOMALY": 279.1459, "EPHEMERIS_TYPE": 0, "CLASSIFICATION_TYPE": "U", "NORAD_CAT_ID": 31655, "ELEMENT_SET_NO": 999, "REV_AT_EPOCH": 59843, "BSTAR": 0.0030683353, "MEAN_MOTION_DOT": 3.207e-05, "MEAN_MOTION_DDOT": 0}, "tle": {"line1": "1 31655U 99025CBM 25355.81180546  .00003207  00000+0  30683-2 0  9991", "line2": "2 31655  99.2852 301.3055 0290352 114.1713 279.1459 13.63924147598439"}}, "geometry": {"type": "Point", "coordinates": [-60.038164930420585, 12.694650098175257]}}, {"type": "Feature", "properties": {"norad_id": 31656, "name": "FENGYUN 1C DEB", "group": "fengyun-1c-debris", "lat": -35.202005379145035, "lon": 159.67988590187397, "alt_km": 757.0478047305633, "timestamp": "2025-12-22T14:45:57.686185+00:00", "meta": {"OBJECT_NAME": "FENGYUN 1C DEB", "OBJECT_ID": "1999-025CBN", "EPOCH": "2025-12-20T05:26:14.212032", "MEAN_MOTION": 14.47119501, "ECCENTRICITY": 0.0022708, "INCLINATION": 99.1923, "RA_OF_ASC_NODE": 343.648, "ARG_OF_PERICENTER": 31.3504, "MEAN_ANOMALY": 347.0761, "EPHEMERIS_TYPE": 0, "CLASSIFICATION_TYPE": "U", "NORAD_CAT_ID": 31656, "ELEMENT_SET_NO": 999, "REV_AT_EPOCH": 96564, "BSTAR": 0.0014361, "MEAN_MOTION_DOT": 5.205e-05, "MEAN_MOTION_DDOT": 0}, "tle": {"line1": "1 31656U 99025CBN 25354.22655338  .00005205  00000+0  14361-2 0  9997", "line2": "2 31656  99.1923 343.6480 0022708  31.3504 347.0761 14.47119501965640"}}, "geometry": {"type": "Point", "coordinates": [159.67988590187397, -35.202005379145035]}}, {"type": "Feature", "properties": {"norad_id": 31657, "name": "FENGYUN 1C DEB", "group": "fengyun-1c-debris", "lat": 76.54937487948756, "lon": 149.15513610613664, "alt_km": 850.741180298699, "timestamp": "2025-12-22T14:45:57.686197+00:00", "meta": {"OBJECT_NAME": "FENGYUN 1C DEB", "OBJECT_ID": "1999-025CBP", "EPOCH": "2025-12-15T00:08:35.623968", "MEAN_MOTION": 13.97064465, "ECCENTRICITY": 0.01478678, "INCLINATION": 102.2166, "RA_OF_ASC_NODE": 254.1396, "ARG_OF_PERICENTER": 48.4638, "MEAN_ANOMALY": 312.9088, "EPHEMERIS_TYPE": 0, "CLASSIFICATION_TYPE": "U", "NORAD_CAT_ID": 31657, "ELEMENT_SET_NO": 999, "REV_AT_EPOCH": 62896, "BSTAR": 0.0027457393, "MEAN_MOTION_DOT": 4.139e-05, "MEAN_MOTION_DDOT": 0}, "tle": {"line1": "1 31657U 99025CBP 25349.00596787  .00004139  00000+0  27457-2 0  9995", "line2": "2 31657 102.2166 254.1396 0147867  48.4638 312.9088 13.97064465628965"}}, "geometry": {"type": "Point", "coordinates": [149.15513610613664, 76.54937487948756]}}]}